NORAD_CAT_ID,OBJECT_NAME,OBJECT_TYPE,EPOCH,MEAN_MOTION,ECCENTRICITY,INCLINATION,RA_OF_ASC_NODE,ARG_OF_PERICENTER,MEAN_ANOMALY,BSTAR,MEAN_MOTION_DOT,MEAN_MOTION_DDOT,TLE_LINE0,TLE_LINE1,TLE_LINE2,SEMIMAJOR_AXIS,PERIOD,APOGEE,PERIGEE,DECAYED
52587.0,STARLINK-3867,PAYLOAD,2023-05-29 20:40:41,15.0884282,0.0001027,53.2182,354.8593,81.6781,278.4328,4.6232e-05,4.48e-06,0.0,0 STARLINK-3867,1 52587U 22051BD  23149.86159022  .00000448  00000-0  46232-4 0  9996,2 52587  53.2182 354.8593 0001027  81.6781 278.4328 15.08842820 58384,6917.872,95.437,540.447,539.026,0.0
52587.0,STARLINK-3867,PAYLOAD,2023-05-30 14:09:56,15.08836119,0.0001023,53.2176,351.5892,93.7653,266.3456,5.6042e-05,6.04e-06,0.0,0 STARLINK-3867,1 52587U 22051BD  23150.59023492  .00000604  00000-0  56042-4 0  9993,2 52587  53.2176 351.5892 0001023  93.7653 266.3456 15.08836119 58495,6917.892,95.438,540.465,539.05,0.0
52587.0,STARLINK-3867,PAYLOAD,2023-05-30 18:56:05,15.08837496,0.0001059,53.2176,350.6975,89.98,270.1313,6.6592e-05,7.72e-06,0.0,0 STARLINK-3867,1 52587U 22051BD  23150.78895423  .00000772  00000-0  66592-4 0  9992,2 52587  53.2176 350.6975 0001059  89.9800 270.1313 15.08837496 58592,6917.888,95.438,540.486,539.02,0.0
52587.0,STARLINK-3867,PAYLOAD,2023-05-30 20:31:28,15.0884125,0.0001058,53.2174,350.4004,92.6686,267.4428,0.00010409,1.369e-05,0.0,0 STARLINK-3867,1 52587U 22051BD  23150.85519082  .00001369  00000-0  10409-3 0  9992,2 52587  53.2174 350.4004 0001058  92.6686 267.4428 15.08841250 58536,6917.877,95.437,540.473,539.01,0.0
52587.0,STARLINK-3867,PAYLOAD,2023-05-31 06:03:47,15.0884441,9.97e-05,53.2174,348.6163,93.3178,266.7928,6.7862e-05,7.93e-06,0.0,0 STARLINK-3867,1 52587U 22051BD  23151.25262960  .00000793  00000-0  67862-4 0  9993,2 52587  53.2174 348.6163 0000997  93.3178 266.7928 15.08844410 58590,6917.867,95.437,540.422,539.042,0.0
52587.0,STARLINK-3867,PAYLOAD,2023-05-31 21:57:38,15.08844822,0.0001351,53.2173,345.6427,105.0003,255.1138,6.6159e-05,7.65e-06,0.0,0 STARLINK-3867,1 52587U 22051BD  23151.91503046  .00000765  00000-0  66159-4 0  9996,2 52587  53.2173 345.6427 0001351 105.0003 255.1138 15.08844822 58695,6917.866,95.437,540.665,538.796,0.0
52587.0,STARLINK-3867,PAYLOAD,2023-05-31 23:33:01,15.08847891,0.0001359,53.2174,345.3449,104.9397,255.1746,5.6479e-05,6.11e-06,0.0,0 STARLINK-3867,1 52587U 22051BD  23151.98126843  .00000611  00000-0  56479-4 0  9993,2 52587  53.2174 345.3449 0001359 104.9397 255.1746 15.08847891 58772,6917.856,95.437,540.661,538.781,0.0
52587.0,STARLINK-3867,PAYLOAD,2023-06-01 05:54:34,15.08839677,0.0001139,53.2179,344.1547,85.4481,274.6642,8.2214e-05,1.021e-05,0.0,0 STARLINK-3867,1 52587U 22051BD  23152.24623429  .00001021  00000-0  82214-4 0  9997,2 52587  53.2179 344.1547 0001139  85.4481 274.6642 15.08839677 58747,6917.881,95.438,540.534,538.958,0.0
52587.0,STARLINK-3867,PAYLOAD,2023-06-02 12:06:54,15.08837638,0.0001063,53.2169,338.5064,90.147,269.9644,0.00010294,1.351e-05,0.0,0 STARLINK-3867,1 52587U 22051BD  23153.50479654  .00001351  00000-0  10294-3 0  9990,2 52587  53.2169 338.5064 0001063  90.1470 269.9644 15.08837638 59008,6917.888,95.438,540.488,539.017,0.0
52587.0,STARLINK-3867,PAYLOAD,2023-06-02 20:03:49,15.08842087,0.0001037,53.2172,337.0192,88.8803,271.2308,7.7532e-05,9.46e-06,0.0,0 STARLINK-3867,1 52587U 22051BD  23153.83599498  .00000946  00000-0  77532-4 0  9993,2 52587  53.2172 337.0192 0001037  88.8803 271.2308 15.08842087 58986,6917.874,95.437,540.456,539.022,0.0
52587.0,STARLINK-3867,PAYLOAD,2023-06-03 05:36:08,15.08844249,9.88e-05,53.2173,335.2351,91.1155,268.995,6.3288e-05,7.2e-06,0.0,0 STARLINK-3867,1 52587U 22051BD  23154.23343357  .00000720  00000-0  63288-4 0  9992,2 52587  53.2173 335.2351 0000988  91.1155 268.9950 15.08844249 59041,6917.867,95.437,540.416,539.049,0.0
52587.0,STARLINK-3867,PAYLOAD,2023-06-03 18:19:13,15.08844791,0.0001034,53.2172,332.855,83.5488,276.5622,7.7608e-05,9.48e-06,0.0,0 STARLINK-3867,1 52587U 22051BD  23154.76335238  .00000948  00000-0  77608-4 0  9992,2 52587  53.2172 332.8550 0001034  83.5488 276.5622 15.08844791 59190,6917.866,95.437,540.446,539.015,0.0
52587.0,STARLINK-3867,PAYLOAD,2023-06-03 21:29:59,15.08848827,0.0001011,53.2168,332.2599,102.9151,257.1954,8.9606e-05,1.139e-05,0.0,0 STARLINK-3867,1 52587U 22051BD  23154.89582940  .00001139  00000-0  89606-4 0  9994,2 52587  53.2168 332.2599 0001011 102.9151 257.1954 15.08848827 59142,6917.853,95.437,540.418,539.019,0.0
52587.0,STARLINK-3867,PAYLOAD,2023-06-04 14:59:14,15.08835618,0.0001174,53.2173,328.9886,91.3855,268.7271,5.432e-05,5.77e-06,0.0,0 STARLINK-3867,1 52587U 22051BD  23155.62447890  .00000577  00000-0  54320-4 0  9990,2 52587  53.2173 328.9886 0001174  91.3855 268.7271 15.08835618 59257,6917.894,95.438,540.571,538.947,0.0
52587.0,STARLINK-3867,PAYLOAD,2023-06-04 18:10:00,15.08842053,9.89e-05,53.2175,328.3938,92.1188,267.9917,6.106e-05,6.84e-06,0.0,0 STARLINK-3867,1 52587U 22051BD  23155.75695395  .00000684  00000-0  61060-4 0  9997,2 52587  53.2175 328.3938 0000989  92.1188 267.9917 15.08842053 59341,6917.874,95.437,540.423,539.055,0.0
52587.0,STARLINK-3867,PAYLOAD,2023-06-05 21:11:33,15.0884719,9.86e-05,53.2174,323.3405,81.8186,278.2918,5.7429e-05,6.27e-06,0.0,0 STARLINK-3867,1 52587U 22051BD  23156.88303181  .00000627  00000-0  57429-4 0  9992,2 52587  53.2174 323.3405 0000986  81.8186 278.2918 15.08847190 59448,6917.858,95.437,540.406,539.041,0.0
52587.0,STARLINK-3867,PAYLOAD,2023-06-06 09:54:39,15.08835625,9.81e-05,53.2175,320.9612,84.9597,275.1507,5.0613e-05,5.18e-06,0.0,0 STARLINK-3867,1 52587U 22051BD  23157.41296003  .00000518  00000-0  50613-4 0  9993,2 52587  53.2175 320.9612 0000981  84.9597 275.1507 15.08835625 59593,6917.894,95.438,540.437,539.08,0.0
52587.0,STARLINK-3867,PAYLOAD,2023-06-06 14:40:49,15.08835552,9.65e-05,53.2176,320.0692,84.0866,276.0236,6.5235e-05,7.51e-06,0.0,0 STARLINK-3867,1 52587U 22051BD  23157.61168022  .00000751  00000-0  65235-4 0  9999,2 52587  53.2176 320.0692 0000965  84.0866 276.0236 15.08835552 59559,6917.894,95.438,540.427,539.091,0.0
52587.0,STARLINK-3867,PAYLOAD,2023-06-07 09:45:27,15.08781977,0.0001254,53.2174,316.5009,86.8226,273.2909,0.00072361,0.00011229,0.0,0 STARLINK-3867,1 52587U 22051BD  23158.40656735  .00011229  00000-0  72361-3 0  9999,2 52587  53.2174 316.5009 0001254  86.8226 273.2909 15.08781977 59749,6918.058,95.441,540.79,539.055,0.0
52587.0,STARLINK-3867,PAYLOAD,2023-06-07 12:56:13,15.08783251,0.0001265,53.2175,315.9062,85.3118,274.8019,0.0007442,0.00011558,0.0,0 STARLINK-3867,1 52587U 22051BD  23158.53905078  .00011558  00000-0  74420-3 0  9993,2 52587  53.2175 315.9062 0001265  85.3118 274.8019 15.08783251 59698,6918.054,95.441,540.794,539.044,0.0
52587.0,STARLINK-3867,PAYLOAD,2023-06-07 19:17:46,15.08791182,0.0001283,53.2174,314.7172,85.6058,274.5081,0.000832,0.0001296,0.0,0 STARLINK-3867,1 52587U 22051BD  23158.80401217  .00012960  00000-0  83200-3 0  9993,2 52587  53.2174 314.7172 0001283  85.6058 274.5081 15.08791182 59735,6918.03,95.441,540.782,539.007,0.0
52587.0,STARLINK-3867,PAYLOAD,2023-06-08 09:36:14,15.08837034,0.0001117,53.2161,312.04,75.0836,285.028,0.00010097,1.319e-05,0.0,0 STARLINK-3867,1 52587U 22051BD  23159.40016273  .00001319  00000-0  10097-3 0  9994,2 52587  53.2161 312.0400 0001117  75.0836 285.0280 15.08837034 59891,6917.889,95.438,540.527,538.982,0.0
52587.0,STARLINK-3867,PAYLOAD,2023-06-08 17:33:09,15.08839614,0.0001109,53.2174,310.5531,73.3476,286.7638,7.266e-05,8.69e-06,0.0,0 STARLINK-3867,1 52587U 22051BD  23159.73136276  .00000869  00000-0  72660-4 0  9990,2 52587  53.2174 310.5531 0001109  73.3476 286.7638 15.08839614 59874,6917.882,95.438,540.514,538.979,0.0
52587.0,STARLINK-3867,PAYLOAD,2023-06-09 15:48:34,15.08834605,0.0001064,53.2168,306.3892,79.7431,280.3681,7.983e-05,9.83e-06,0.0,0 STARLINK-3867,1 52587U 22051BD  23160.65872760  .00000983  00000-0  79830-4 0  9991,2 52587  53.2168 306.3892 0001064  79.7431 280.3681 15.08834605 60012,6917.897,95.438,540.498,539.026,0.0
52587.0,STARLINK-3867,PAYLOAD,2023-06-10 02:56:15,15.08841408,0.0001096,53.2178,304.3092,81.5513,278.5603,8.5404e-05,1.072e-05,0.0,0 STARLINK-3867,1 52587U 22051BD  23161.12240349  .00001072  00000-0  85404-4 0  9990,2 52587  53.2178 304.3092 0001096  81.5513 278.5603 15.08841408 60157,6917.876,95.437,540.499,538.983,0.0
52587.0,STARLINK-3867,PAYLOAD,2023-06-10 09:17:48,15.08838414,9e-05,53.2179,303.1189,84.0057,276.1038,0.00011843,1.598e-05,0.0,0 STARLINK-3867,1 52587U 22051BD  23161.38736394  .00001598  00000-0  11843-3 0  9996,2 52587  53.2179 303.1189 0000900  84.0057 276.1038 15.08838414 60122,6917.885,95.438,540.373,539.128,0.0
52587.0,STARLINK-3867,PAYLOAD,2023-06-10 15:39:20,15.0884401,8.7e-05,53.2177,301.9303,80.6925,279.4165,0.00010612,1.402e-05,0.0,0 STARLINK-3867,1 52587U 22051BD  23161.65232101  .00001402  00000-0  10612-3 0  9990,2 52587  53.2177 301.9303 0000870  80.6925 279.4165 15.08844010 60166,6917.868,95.437,540.335,539.131,0.0
52587.0,STARLINK-3867,PAYLOAD,2023-06-11 09:08:35,15.08842275,0.0001209,53.2188,298.6612,76.2429,283.8697,7.6396e-05,9.28e-06,0.0,0 STARLINK-3867,1 52587U 22051BD  23162.38096378  .00000928  00000-0  76396-4 0  9999,2 52587  53.2188 298.6612 0001209  76.2429 283.8697 15.08842275 60340,6917.873,95.437,540.575,538.902,0.0
52587.0,STARLINK-3867,PAYLOAD,2023-06-11 18:40:53,15.08846884,0.0001061,53.2177,296.8744,95.9145,264.1968,0.00010396,1.367e-05,0.0,0 STARLINK-3867,1 52587U 22051BD  23162.77839799  .00001367  00000-0  10396-3 0  9999,2 52587  53.2177 296.8744 0001061  95.9145 264.1968 15.08846884 60335,6917.859,95.437,540.458,538.99,0.0
52587.0,STARLINK-3867,PAYLOAD,2023-06-12 15:20:54,15.08840929,9.06e-05,53.2174,293.0094,84.1159,275.9937,3.4079e-05,2.55e-06,0.0,0 STARLINK-3867,1 52587U 22051BD  23163.63952269  .00000255  00000-0  34079-4 0  9993,2 52587  53.2174 293.0094 0000906  84.1159 275.9937 15.08840929 60533,6917.878,95.437,540.369,539.116,0.0
